[{"OBJECT_NAME":"STARLINK-3136","OBJECT_ID":"2021-104AM","EPOCH":"2026-03-09T14:23:32.648352","MEAN_MOTION":15.08849863,"ECCENTRICITY":7.82e-5,"INCLINATION":53.2167,"RA_OF_ASC_NODE":209.5242,"ARG_OF_PERICENTER":104.6169,"MEAN_ANOMALY":255.491,"EPHEMERIS_TYPE":0,"CLASSIFICATION_TYPE":"U","NORAD_CAT_ID":49443,"ELEMENT_SET_NO":999,"REV_AT_EPOCH":23890,"BSTAR":-0.00026245,"MEAN_MOTION_DOT":-4.463e-5,"MEAN_MOTION_DDOT":0},{"OBJECT_NAME":"FENGYUN 1C DEB","OBJECT_ID":"1999-025FN","EPOCH":"2026-03-09T22:18:23.675616","MEAN_MOTION":14.79879453,"ECCENTRICITY":0.01939452,"INCLINATION":97.9352,"RA_OF_ASC_NODE":118.672,"ARG_OF_PERICENTER":81.3681,"MEAN_ANOMALY":358.3473,"EPHEMERIS_TYPE":0,"CLASSIFICATION_TYPE":"U","NORAD_CAT_ID":29868,"ELEMENT_SET_NO":999,"REV_AT_EPOCH":1584,"BSTAR":0.0007539816,"MEAN_MOTION_DOT":7.789e-5,"MEAN_MOTION_DDOT":0}]
